CARTOSAT-2D             
1 41948U 17008A   22353.83533138  .00004655  00000+0  22361-3 0  9997
2 41948  97.4422  51.0792 0006915  45.8230 314.3539 15.19303470323945
SENTINEL-2B             
1 42063U 17013A   22352.98372469 -.00000031  00000+0  48793-5 0  9999
2 42063  98.5719  65.0708 0001336  83.4600 276.6805 14.30813523302151
ZHUHAI-1 02 (CAS-4B)    
1 42759U 17034B   22354.47251142  .00007114  00000+0  40111-3 0  9996
2 42759  43.0181  26.2515 0010308  18.7328 117.8514 15.13591844304520
NUSAT-3 (MILANESAT)     
1 42760U 17034C   22354.44441647  .00006909  00000+0  38014-3 0  9996
2 42760  43.0148  19.9228 0010322  43.4240  57.0903 15.14504954304602
ZHUHAI-1 01 (CAS-4A)    
1 42761U 17034D   22354.49888565  .00007137  00000+0  40122-3 0  9993
2 42761  43.0185  24.7573 0010186  21.6364 122.6307 15.13692321304538
CARTOSAT-2E             
1 42767U 17036C   22351.77111525  .00003912  00000+0  18880-3 0  9997
2 42767  97.4321  49.6395 0009246  99.4567  40.2256 15.19220711304196
FORMOSAT-5              
1 42920U 17049A   22354.43210769  .00000178  00000+0  56420-4 0  9992
2 42920  98.3411  68.6077 0011861  43.6021 316.6107 14.50807535281836
SENTINEL-5P             
1 42969U 17064A   22354.55265791  .00000065  00000+0  51889-4 0  9999
2 42969  98.7519 291.8650 0001042  90.2725 269.8570 14.19532627268726
SKYSAT-C11              
1 42987U 17068A   22353.87086393  .00016094  00000+0  41239-3 0  9992
2 42987  97.3075 111.8332 0004574  77.3631 282.8126 15.39445345286894
SKYSAT-C10              
1 42988U 17068B   22354.55423391  .00015916  00000+0  40784-3 0  9998
2 42988  97.3128 112.8789 0001769   4.3067 355.8194 15.39454832287020
SKYSAT-C9               
1 42989U 17068C   22354.60348516  .00015495  00000+0  39591-3 0  9996
2 42989  97.3059 111.9261 0001386 133.6947 226.4414 15.39549791287226
SKYSAT-C8               
1 42990U 17068D   22354.59863442  .00015357  00000+0  39294-3 0  9993
2 42990  97.3142 113.3699 0000713 240.3068 119.8107 15.39509955287058
SKYSAT-C7               
1 42991U 17068E   22354.57644404  .00015412  00000+0  39454-3 0  9997
2 42991  97.3143 113.4316 0004840  78.5433 281.6356 15.39483274287058
SKYSAT-C6               
1 42992U 17068F   22353.85282779  .00015428  00000+0  39551-3 0  9996
2 42992  97.3160 113.1394 0004948  64.0045 296.1710 15.39439101286952
CARTOSAT-2F             
1 43111U 18004A   22354.49874426  .00004916  00000+0  23626-3 0  9994
2 43111  97.4265  52.0961 0005269  99.5175  14.4601 15.19269145273793
NUSAT-4 (ADA)           
1 43195U 18015D   22354.45087841  .00020585  00000+0  59246-3 0  9998
2 43195  97.5553 139.1714 0014501 105.8595 338.1808 15.35699164271727
NUSAT-5 (MARYAM)        
1 43204U 18015K   22354.45613140  .00021376  00000+0  60474-3 0  9990
2 43204  97.5558 139.8993 0014024 106.8669 326.0079 15.36236589271367
GAOFEN 1-02             
1 43259U 18031A   22354.47270735  .00000442  00000+0  70585-4 0  9995
2 43259  97.8840  66.8865 0004658 120.2063 250.4170 14.76539671254590
GAOFEN 1-03             
1 43260U 18031B   22354.17797656  .00000978  00000+0  14737-3 0  9990
2 43260  97.8836  66.5550 0004869 185.0769 175.0411 14.76562701254546
GAOFEN 1-04             
1 43262U 18031D   22354.15339890  .00000982  00000+0  14793-3 0  9999
2 43262  97.8842  66.5828 0005578 144.0416 216.1169 14.76553783254531
SENTINEL-3B             
1 43437U 18039A   22354.15803629  .00000141  00000+0  76389-4 0  9994
2 43437  98.6243  58.8097 0001383  87.0890 273.0448 14.26741555242319
GAOFEN 5-01             
1 43461U 18043A   22353.84878041  .00000477  00000+0  11361-3 0  9991
2 43461  98.2910 293.4959 0003091  81.4343 278.7206 14.58126473245673
GAOFEN 6                
1 43484U 18048A   22354.11997356  .00000841  00000+0  12784-3 0  9998
2 43484  97.9162  70.9586 0008120 338.8681  21.2208 14.76548995245231
GAOFEN 11-1             
1 43585U 18063A   22354.48774875  .00007023  00000+0  29442-3 0  9994
2 43585  97.3025  65.8793 0009425 240.9356 245.2424 15.23771543244719
AEOLUS                  
1 43600U 18066A   22354.46947256  .00103265  55263-5  39974-3 0  9991
2 43600  96.7300 357.4208 0012672 100.9015 259.3685 15.87142233250622
ICESAT-2                
1 43613U 18070A   22354.15075685  .00012736  00000+0  46274-3 0  9990
2 43613  92.0021 308.1914 0004402  33.7966 326.3564 15.28241062237735
HYSIS                   
1 43719U 18096A   22354.05301928  .00001245  00000+0  17687-3 0  9995
2 43719  97.9374  57.8399 0001480 350.7275   9.3899 14.78681842218983
KAZSTSAT                
1 43783U 18099AB  22353.74540279  .00000863  00000+0  85517-4 0  9991
2 43783  97.6080  53.5976 0008321  20.9317 339.2242 14.94292807220474
SAUDISAT 5A             
1 43831U 18102A   22354.34992149  .00003540  00000+0  22120-3 0  9999
2 43831  97.4787  63.2075 0012496 259.3288 163.0173 15.10030184222229
SAUDISAT 5B             
1 43833U 18102C   22354.32260534  .00002732  00000+0  16952-3 0  9993
2 43833  97.4810  64.2986 0013055 266.1645 180.7656 15.10486098222271
GAOFEN 10R              
1 44622U 19066A   22354.09074626  .00001547  00000+0  20548-3 0  9998
2 44622  97.9108 290.6536 0002705 109.6276 250.5228 14.81194291173487
CARTOSAT-3              
1 44804U 19081A   22353.98174947  .00004232  00000+0  20370-3 0  9998
2 44804  97.3753  51.5095 0010963 289.7649 192.7219 15.19254696169808
GAOFEN 12-1             
1 44819U 19082A   22354.08695333  .00000464  00000+0  67513-4 0  9998
2 44819  97.8514  10.5782 0001266  74.1152 286.0216 14.80364474165402
CSG-1                   
1 44873U 19092A   22354.11496661 -.00000018  00000+0  42386-5 0  9994
2 44873  97.8875 175.1438 0001295  88.9810 271.1632 14.82155172162605
NUSAT-7 (SOPHIE)        
1 45017U 20003B   22354.50320096  .00020134  00000+0  50421-3 0  9997
2 45017  97.1918  52.6789 0012026  54.1100  58.8066 15.40032919163808
NUSAT-8 (MARIE)         
1 45018U 20003C   22354.49926713  .00026110  00000+0  57022-3 0  9998
2 45018  97.2053  55.6255 0010410  52.3718  71.9220 15.44119555163906
NUSAT-6 (HYPATIA)       
1 46272U 20061A   22354.63798901  .00011545  00000+0  42610-3 0  9990
2 46272  97.3073  61.7674 0007727 125.1112 235.0856 15.27895364127626
NEMO-HD                 
1 46277U 20061F   22354.48959475  .00003852  00000+0  18938-3 0  9991
2 46277  97.3717  60.6003 0000540 164.4885 320.2529 15.18612572127081
NUSAT-12 (DOROTHY)      
1 46827U 20079A   22354.50574449  .00026162  00000+0  57556-3 0  9996
2 46827  97.1772  61.3309 0006748   0.3413 124.9229 15.43934783118747
NUSAT-9 (ALICE)         
1 46828U 20079B   22354.50514956  .00028032  00000+0  60115-3 0  9997
2 46828  97.1645  60.8253 0003565  47.3709  77.7919 15.44694577118793
NUSAT-11 (CORA)         
1 46829U 20079C   22354.50025102  .00027448  00000+0  58796-3 0  9990
2 46829  97.1693  61.2603 0005725  15.8916 111.8776 15.44722441118783
NUSAT-15 (KATHERINE)    
1 46830U 20079D   22354.50319067  .00027117  00000+0  58452-3 0  9990
2 46830  97.1853  62.7632 0002703 358.0907 131.8076 15.44552863118791
NUSAT-14 (HEDY)         
1 46831U 20079E   22354.49414892  .00028318  00000+0  58608-3 0  9998
2 46831  97.1813  62.7260 0006355 358.0057 126.9026 15.45726034118815
NUSAT-10 (CAROLINE)     
1 46832U 20079F   22354.50252777  .00024386  00000+0  53800-3 0  9993
2 46832  97.1820  62.1563 0006560  12.5148 115.2797 15.43865747118779
NUSAT-13 (EMMY)         
1 46833U 20079G   22354.52155000  .00023761  00000+0  52967-3 0  9996
2 46833  97.1814  62.0958 0006589  14.2675  99.8882 15.43562099118771
NUSAT-17 (MARY)         
1 46835U 20079J   22354.50588122  .00024720  00000+0  55252-3 0  9997
2 46835  97.1811  61.7945 0007160  24.7992  70.9017 15.43471338118759
NUSAT-18 (VERA)         
1 46836U 20079K   22354.49208838  .00025745  00000+0  56131-3 0  9994
2 46836  97.1823  62.3531 0007960  30.1652  94.7512 15.44195004118784
NUSAT-16 (LISE)         
1 46840U 20079P   22354.51364125  .00027054  00000+0  58534-3 0  9998
2 46840  97.1868  62.5921 0005281  28.0782  96.6864 15.44432455118782
SENTINEL-6              
1 46984U 20086A   22353.48087891 -.00000061  00000+0  00000+0 0  9993
2 46984  66.0440 264.7142 0007774 266.6495  93.3630 12.80931171 97061
GAOFEN 12-2             
1 48079U 21026A   22354.18895143  .00000535  00000+0  77051-4 0  9990
2 48079  97.9089 341.9752 0001449  78.4465 281.6914 14.80317391 93106
PLEIADES NEO 3          
1 48268U 21034A   22354.57782410  .00000030  00000+0  10442-4 0  9995
2 48268  97.8943  66.6358 0001237  89.9861 270.1564 14.81673863 88916
NUSAT-19 (ROSALIND)     
1 48905U 21059AC  22354.52415575  .00010631  00000+0  46680-3 0  9990
2 48905  97.5293 123.8076 0010465 140.0645 291.0614 15.22069679 82343
NUSAT-22 (SOFYA)        
1 48919U 21059AS  22354.53250766  .00021076  00000+0  58956-3 0  9999
2 48919  97.3755 126.1355 0013849  93.1860 329.2522 15.36589875 83085
NUSAT-21 (ELISA)        
1 48920U 21059AT  22354.45968493  .00025032  00000+0  61343-3 0  9995
2 48920  97.3704 126.1696 0012995  99.4474 332.0622 15.40639987 83123
NUSAT-20 (GRACE)        
1 48921U 21059AU  22354.45232910  .00024367  00000+0  63121-3 0  9990
2 48921  97.3828 126.5419 0015470 118.3429 312.7896 15.38914327 83095
PLEIADES NEO 4          
1 49070U 21073E   22354.13884977 -.00000060  00000+0 -98894-6 0  9997
2 49070  97.8940  66.1978 0001211  83.0791 277.0521 14.81673205 72560
LANDSAT 9               
1 49260U 21088A   22354.48480997  .00000463  00000+0  11289-3 0  9991
2 49260  98.2087  62.2381 0001387  93.0163 267.1194 14.57120335 65361
CSG-2                   
1 51444U 22008A   22354.08124206 -.00000193  00000+0 -17684-4 0  9993
2 51444  97.8867 175.1070 0001375  81.9787 278.1602 14.82150364 47711
INS-2TD                 
1 51658U 22013C   22353.73819570  .00009783  00000+0  49969-3 0  9994
2 51658  97.5539   0.9087 0008488 275.7251  84.3014 15.16868779 46734
GAOFEN 12-3             
1 52912U 22069A   22354.13463189  .00001616  00000+0  21765-3 0  9996
2 52912  97.9706 240.5264 0001072 357.9311   2.1905 14.80574276 25953
